{"type": "FeatureCollection", "features": [ {"type": "Feature", "properties": {"norad_id": 41836, "name": "HIMAWARI-9", "group": "weather", "lat": 0.0005134407726239576, "lon": 47.448221267618536, "alt_km": 35786.28235130494, "timestamp": "2025-12-26T11:25:44.866095+00:00", "meta": {"OBJECT_NAME": "HIMAWARI-9", "OBJECT_ID": "2016-064A", "EPOCH": "2025-12-26T00:44:38.655744", "MEAN_MOTION": 1.00271993, "ECCENTRICITY": 0.0001079, "INCLINATION": 0.0124, "RA_OF_ASC_NODE": 80.1849, "ARG_OF_PERICENTER": 234.8379, "MEAN_ANOMALY": 291.7052, "EPHEMERIS_TYPE": 0, "CLASSIFICATION_TYPE": "U", "NORAD_CAT_ID": 41836, "ELEMENT_SET_NO": 999, "REV_AT_EPOCH": 3347, "BSTAR": 0, "MEAN_MOTION_DOT": -2.53e-06, "MEAN_MOTION_DDOT": 0}, "tle": {"line1": "1 41836U 16064A   25360.03100296 -.00000253  00000+0  00000+0 0  9995", "line2": "2 41836   0.0124  80.1849 0001079 234.8379 291.7052  1.00271993 33479"}}, "geometry": {"type": "Point", "coordinates": [47.448221267618536, 0.0005134407726239576]}}, {"type": "Feature", "properties": {"norad_id": 41866, "name": "GOES 16", "group": "weather", "lat": 0.07623396931036412, "lon": 161.95374470697593, "alt_km": 35789.615950547945, "timestamp": "2025-12-26T11:25:44.866105+00:00", "meta": {"OBJECT_NAME": "GOES 16", "OBJECT_ID": "2016-071A", "EPOCH": "2025-12-26T01:40:38.552160", "MEAN_MOTION": 1.0027174, "ECCENTRICITY": 0.0003239, "INCLINATION": 0.0783, "RA_OF_ASC_NODE": 101.035, "ARG_OF_PERICENTER": 165.7681, "MEAN_ANOMALY": 108.5169, "EPHEMERIS_TYPE": 0, "CLASSIFICATION_TYPE": "U", "NORAD_CAT_ID": 41866, "ELEMENT_SET_NO": 999, "REV_AT_EPOCH": 3336, "BSTAR": 0, "MEAN_MOTION_DOT": -6.9e-07, "MEAN_MOTION_DDOT": 0}, "tle": {"line1": "1 41866U 16071A   25360.06989065 -.00000069  00000+0  00000+0 0  9993", "line2": "2 41866   0.0783 101.0350 0003239 165.7681 108.5169  1.00271740 33363"}}, "geometry": {"type": "Point", "coordinates": [161.95374470697593, 0.07623396931036412]}}, {"type": "Feature", "properties": {"norad_id": 41882, "name": "FENGYUN 4A", "group": "weather", "lat": -1.4781402874197584, "lon": 30.247959608833835, "alt_km": 35807.3083908811, "timestamp": "2025-12-26T11:25:44.866116+00:00", "meta": {"OBJECT_NAME": "FENGYUN 4A", "OBJECT_ID": "2016-077A", "EPOCH": "2025-12-26T02:19:21.450720", "MEAN_MOTION": 1.00262566, "ECCENTRICITY": 0.0004528, "INCLINATION": 1.8809, "RA_OF_ASC_NODE": 82.26, "ARG_OF_PERICENTER": 143.2043, "MEAN_ANOMALY": 27.8016, "EPHEMERIS_TYPE": 0, "CLASSIFICATION_TYPE": "U", "NORAD_CAT_ID": 41882, "ELEMENT_SET_NO": 999, "REV_AT_EPOCH": 3319, "BSTAR": 0, "MEAN_MOTION_DOT": -3.36e-06, "MEAN_MOTION_DDOT": 0}, "tle": {"line1": "1 41882U 16077A   25360.09677605 -.00000336  00000+0  00000+0 0  9991", "line2": "2 41882   1.8809  82.2600 0004528 143.2043  27.8016  1.00262566 33193"}}, "geometry": {"type": "Point", "coordinates": [30.247959608833835, -1.4781402874197584]}}, {"type": "Feature", "properties": {"norad_id": 41884, "name": "CYGFM05", "group": "weather", "lat": -2.0240155585160897, "lon": -45.53034916636532, "alt_km": 417.20009086707887, "timestamp": "2025-12-26T11:25:44.866125+00:00", "meta": {"OBJECT_NAME": "CYGFM05", "OBJECT_ID": "2016-078A", "EPOCH": "2025-12-26T03:42:22.178304", "MEAN_MOTION": 15.48143326, "ECCENTRICITY": 0.0010454, "INCLINATION": 34.9601, "RA_OF_ASC_NODE": 319.4726, "ARG_OF_PERICENTER": 298.4253, "MEAN_ANOMALY": 61.5415, "EPHEMERIS_TYPE": 0, "CLASSIFICATION_TYPE": "U", "NORAD_CAT_ID": 41884, "ELEMENT_SET_NO": 999, "REV_AT_EPOCH": 50184, "BSTAR": 0.00036901, "MEAN_MOTION_DOT": 0.00020025, "MEAN_MOTION_DDOT": 0}, "tle": {"line1": "1 41884U 16078A   25360.15442336  .00020025  00000+0  36901-3 0  9991", "line2": "2 41884  34.9601 319.4726 0010454 298.4253  61.5415 15.48143326501846"}}, "geometry": {"type": "Point", "coordinates": [-45.53034916636532, -2.0240155585160897]}}, {"type": "Feature", "properties": {"norad_id": 41885, "name": "CYGFM04", "group": "weather", "lat": 7.3199617190717925, "lon": -57.65111884550003, "alt_km": 407.63118377808587, "timestamp": "2025-12-26T11:25:44.866135+00:00", "meta": {"OBJECT_NAME": "CYGFM04", "OBJECT_ID": "2016-078B", "EPOCH": "2025-12-26T02:06:18.118080", "MEAN_MOTION": 15.50937538, "ECCENTRICITY": 0.0008989, "INCLINATION": 34.9347, "RA_OF_ASC_NODE": 294.2953, "ARG_OF_PERICENTER": 322.579, "MEAN_ANOMALY": 37.4306, "EPHEMERIS_TYPE": 0, "CLASSIFICATION_TYPE": "U", "NORAD_CAT_ID": 41885, "ELEMENT_SET_NO": 999, "REV_AT_EPOCH": 50201, "BSTAR": 0.00037814, "MEAN_MOTION_DOT": 0.00022656, "MEAN_MOTION_DDOT": 0}, "tle": {"line1": "1 41885U 16078B   25360.08770970  .00022656  00000+0  37814-3 0  9998", "line2": "2 41885  34.9347 294.2953 0008989 322.5790  37.4306 15.50937538502011"}}, "geometry": {"type": "Point", "coordinates": [-57.65111884550003, 7.3199617190717925]}}, {"type": "Feature", "properties": {"norad_id": 41886, "name": "CYGFM02", "group": "weather", "lat": 34.74264726145445, "lon": 26.545754664290726, "alt_km": 407.72750901700874, "timestamp": "2025-12-26T11:25:44.866144+00:00", "meta": {"OBJECT_NAME": "CYGFM02", "OBJECT_ID": "2016-078C", "EPOCH": "2025-12-26T03:18:11.674368", "MEAN_MOTION": 15.52360469, "ECCENTRICITY": 0.0010586, "INCLINATION": 34.9436, "RA_OF_ASC_NODE": 292.1173, "ARG_OF_PERICENTER": 324.7882, "MEAN_ANOMALY": 35.214, "EPHEMERIS_TYPE": 0, "CLASSIFICATION_TYPE": "U", "NORAD_CAT_ID": 41886, "ELEMENT_SET_NO": 999, "REV_AT_EPOCH": 50215, "BSTAR": 0.00038252, "MEAN_MOTION_DOT": 0.00024144, "MEAN_MOTION_DDOT": 0}, "tle": {"line1": "1 41886U 16078C   25360.13763512  .00024144  00000+0  38252-3 0  9990", "line2": "2 41886  34.9436 292.1173 0010586 324.7882  35.2140 15.52360469502156"}}, "geometry": {"type": "Point", "coordinates": [26.545754664290726, 34.74264726145445]}}, {"type": "Feature", "properties": {"norad_id": 41887, "name": "CYGFM01", "group": "weather", "lat": 32.52600724989999, "lon": 25.586780390129732, "alt_km": 419.3288631616242, "timestamp": "2025-12-26T11:25:44.866153+00:00", "meta": {"OBJECT_NAME": "CYGFM01", "OBJECT_ID": "2016-078D", "EPOCH": "2025-12-26T04:56:26.352384", "MEAN_MOTION": 15.48740434, "ECCENTRICITY": 0.0010254, "INCLINATION": 34.9436, "RA_OF_ASC_NODE": 321.3899, "ARG_OF_PERICENTER": 291.2931, "MEAN_ANOMALY": 68.6695, "EPHEMERIS_TYPE": 0, "CLASSIFICATION_TYPE": "U", "NORAD_CAT_ID": 41887, "ELEMENT_SET_NO": 999, "REV_AT_EPOCH": 50179, "BSTAR": 0.00037112, "MEAN_MOTION_DOT": 0.00020569, "MEAN_MOTION_DDOT": 0}, "tle": {"line1": "1 41887U 16078D   25360.20586056  .00020569  00000+0  37112-3 0  9996", "line2": "2 41887  34.9436 321.3899 0010254 291.2931  68.6695 15.48740434501795"}}, "geometry": {"type": "Point", "coordinates": [25.586780390129732, 32.52600724989999]}}, {"type": "Feature", "properties": {"norad_id": 41888, "name": "CYGFM08", "group": "weather", "lat": 0.5883970361078487, "lon": 121.60724664298391, "alt_km": 421.3350715673123, "timestamp": "2025-12-26T11:25:44.866163+00:00", "meta": {"OBJECT_NAME": "CYGFM08", "OBJECT_ID": "2016-078E", "EPOCH": "2025-12-26T04:28:38.499744", "MEAN_MOTION": 15.4998199, "ECCENTRICITY": 0.0011341, "INCLINATION": 34.946, "RA_OF_ASC_NODE": 304.349, "ARG_OF_PERICENTER": 314.88, "MEAN_ANOMALY": 45.1001, "EPHEMERIS_TYPE": 0, "CLASSIFICATION_TYPE": "U", "NORAD_CAT_ID": 41888, "ELEMENT_SET_NO": 999, "REV_AT_EPOCH": 50202, "BSTAR": 0.00037787, "MEAN_MOTION_DOT": 0.00021899, "MEAN_MOTION_DDOT": 0}, "tle": {"line1": "1 41888U 16078E   25360.18655671  .00021899  00000+0  37787-3 0  9999", "line2": "2 41888  34.9460 304.3490 0011341 314.8800  45.1001 15.49981990502029"}}, "geometry": {"type": "Point", "coordinates": [121.60724664298391, 0.5883970361078487]}}, {"type": "Feature", "properties": {"norad_id": 41890, "name": "CYGFM07", "group": "weather", "lat": -9.04826779447853, "lon": 124.53400917691043, "alt_km": 419.482405610207, "timestamp": "2025-12-26T11:25:44.866173+00:00", "meta": {"OBJECT_NAME": "CYGFM07", "OBJECT_ID": "2016-078G", "EPOCH": "2025-12-26T04:24:26.717184", "MEAN_MOTION": 15.50579165, "ECCENTRICITY": 0.0009164, "INCLINATION": 34.9476, "RA_OF_ASC_NODE": 293.2724, "ARG_OF_PERICENTER": 329.5262, "MEAN_ANOMALY": 30.4927, "EPHEMERIS_TYPE": 0, "CLASSIFICATION_TYPE": "U", "NORAD_CAT_ID": 41890, "ELEMENT_SET_NO": 999, "REV_AT_EPOCH": 50204, "BSTAR": 0.00037516, "MEAN_MOTION_DOT": 0.0002219, "MEAN_MOTION_DDOT": 0}, "tle": {"line1": "1 41890U 16078G   25360.18364256  .00022190  00000+0  37516-3 0  9993", "line2": "2 41890  34.9476 293.2724 0009164 329.5262  30.4927 15.50579165502045"}}, "geometry": {"type": "Point", "coordinates": [124.53400917691043, -9.04826779447853]}}, {"type": "Feature", "properties": {"norad_id": 41891, "name": "CYGFM03", "group": "weather", "lat": 14.305243542780822, "lon": -45.299570692772896, "alt_km": 409.68383948507653, "timestamp": "2025-12-26T11:25:44.866182+00:00", "meta": {"OBJECT_NAME": "CYGFM03", "OBJECT_ID": "2016-078H", "EPOCH": "2025-12-26T03:35:34.895616", "MEAN_MOTION": 15.50470512, "ECCENTRICITY": 0.0009079, "INCLINATION": 34.9429, "RA_OF_ASC_NODE": 295.4226, "ARG_OF_PERICENTER": 316.1176, "MEAN_ANOMALY": 43.8824, "EPHEMERIS_TYPE": 0, "CLASSIFICATION_TYPE": "U", "NORAD_CAT_ID": 41891, "ELEMENT_SET_NO": 999, "REV_AT_EPOCH": 50201, "BSTAR": 0.00038336, "MEAN_MOTION_DOT": 0.00022589, "MEAN_MOTION_DDOT": 0}, "tle": {"line1": "1 41891U 16078H   25360.14970944  .00022589  00000+0  38336-3 0  9990", "line2": "2 41891  34.9429 295.4226 0009079 316.1176  43.8824 15.50470512502013"}}, "geometry": {"type": "Point", "coordinates": [-45.299570692772896, 14.305243542780822]}}]}